ONEWEB-0446             
1 51640U 22012U   25124.50537529  .00000635  00000+0  17825-2 0  9991
2 51640  87.8795 117.7705 0002094  95.6727 264.4639 13.10374029157109
ONEWEB-0448             
1 51641U 22012V   25124.51034900  .00000605  00000+0  16972-2 0  9997
2 51641  87.8793 117.7692 0002072  86.5258 273.6106 13.10373250157068
ONEWEB-0449             
1 51642U 22012W   25124.51534299  .00000505  00000+0  14109-2 0  9993
2 51642  87.8784 117.7455 0002468  81.9290 278.2117 13.10373147155785
ONEWEB-0451             
1 51643U 22012X   25124.59631625  .00000095  00000+0  21194-3 0  9990
2 51643  87.9031  87.1962 0002250  83.3013 276.8374 13.17650417159859
ONEWEB-0452             
1 51644U 22012Y   25124.59462824  .00000124  00000+0  28496-3 0  9999
2 51644  87.9039  87.2561 0002230  77.2851 282.8529 13.17650651159864
ONEWEB-0456             
1 51646U 22012AA  25124.52528392  .00000051  00000+0  11116-3 0  9997
2 51646  87.8780 117.7044 0001781  89.0058 271.1274 13.10369249155826
ONEWEB-0457             
1 51647U 22012AB  25124.50205058  .00000637  00000+0  17896-2 0  9997
2 51647  87.8795 117.7595 0002423  90.0318 270.1087 13.10375358155828
ONEWEB-0458             
1 51648U 22012AC  25124.52362214  .00000121  00000+0  30919-3 0  9998
2 51648  87.8774 117.7434 0002008  84.3853 275.7503 13.10370757155784
